{
"type": "FeatureCollection",
"name": "pt_station",
"crs": { "type": "name", "properties": { "name": "urn:ogc:def:crs:EPSG::32748" } },
"features": [
{ "type": "Feature", "properties": { "full_id": "n1228644985", "osm_id": "1228644985", "osm_type": "node", "railway": "station", "wheelchair": null, "addr:housenumber": null, "name:zh": null, "name:ja": null, "ref": null, "addr:street": null, "wikipedia": "id:Stasiun Cimekar", "wikidata": "Q12516241", "train": "yes", "railway:ref": "CMK", "public_transport": "station", "operator:wikidata": "Q2745027", "operator:website": "https://www.kai.id", "operator": "PT Kereta Api Indonesia", "network:wikidata": "Q12501611", "network": "KAI Commuter", "name": "Cimekar", "ele": "668", "alt_name": "Stasiun Cimekar", "addr:postcode": "40294", "addr:city": "Bandung" }, "geometry": { "type": "Point", "coordinates": [ 799734.824205996352248, 9231022.996438754722476 ] } },
{ "type": "Feature", "properties": { "full_id": "n1228645035", "osm_id": "1228645035", "osm_type": "node", "railway": "station", "wheelchair": null, "addr:housenumber": null, "name:zh": null, "name:ja": null, "ref": "GDB", "addr:street": "Jalan Stasiun Gedebage", "wikipedia": "id:Stasiun Gedebage", "wikidata": "Q12516256", "train": "yes", "railway:ref": "GDB", "public_transport": "station", "operator:wikidata": "Q2745027", "operator:website": "https://www.kai.id", "operator": "PT Kereta Api Indonesia", "network:wikidata": "Q12501611", "network": "KAI Commuter", "name": "Gedebage", "ele": "672", "alt_name": "Stasiun Gedebage", "addr:postcode": "40294", "addr:city": "Bandung" }, "geometry": { "type": "Point", "coordinates": [ 797235.066207788535394, 9231949.122614219784737 ] } },
{ "type": "Feature", "properties": { "full_id": "n5298718924", "osm_id": "5298718924", "osm_type": "node", "railway": "station", "wheelchair": null, "addr:housenumber": null, "name:zh": null, "name:ja": null, "ref": null, "addr:street": "Jalan Ibrahim Adjie", "wikipedia": "id:Stasiun Kiaracondong", "wikidata": "Q2406887", "train": "yes", "railway:ref": "KAC", "public_transport": "station", "operator:wikidata": "Q2745027", "operator:website": "https://www.kai.id", "operator": "PT Kereta Api Indonesia", "network:wikidata": "Q2745027", "network": "KAI", "name": "Kiaracondong", "ele": "681", "alt_name": "Stasiun Kiaracondong;Stasiun Kircon;Kircon", "addr:postcode": "40283", "addr:city": "Bandung" }, "geometry": { "type": "Point", "coordinates": [ 792433.810287690605037, 9233707.350089401006699 ] } },
{ "type": "Feature", "properties": { "full_id": "n5299765139", "osm_id": "5299765139", "osm_type": "node", "railway": "station", "wheelchair": null, "addr:housenumber": null, "name:zh": null, "name:ja": null, "ref": null, "addr:street": "Jalan Ciroyom", "wikipedia": "id:Stasiun Andir", "wikidata": "Q12516214", "train": "yes", "railway:ref": "AND", "public_transport": "station", "operator:wikidata": "Q2745027", "operator:website": "https://www.kai.id", "operator": "PT Kereta Api Indonesia", "network:wikidata": "Q12501611", "network": "KAI Commuter", "name": "Andir", "ele": "750", "alt_name": "Stasiun Andir", "addr:postcode": null, "addr:city": "Bandung City" }, "geometry": { "type": "Point", "coordinates": [ 785066.056209471775219, 9235606.148859703913331 ] } },
{ "type": "Feature", "properties": { "full_id": "n5851210256", "osm_id": "5851210256", "osm_type": "node", "railway": "station", "wheelchair": null, "addr:housenumber": null, "name:zh": "德卡鲁瓦", "name:ja": "テガルアール", "ref": null, "addr:street": null, "wikipedia": "id:Stasiun Tegalluar", "wikidata": "Q111590563", "train": "yes", "railway:ref": null, "public_transport": "station", "operator:wikidata": null, "operator:website": null, "operator": "Kereta Cepat Indonesia China", "network:wikidata": null, "network": "Whoosh", "name": "Tegalluar Summarecon", "ele": null, "alt_name": null, "addr:postcode": null, "addr:city": null }, "geometry": { "type": "Point", "coordinates": [ 800061.366233559790999, 9229407.046044154092669 ] } },
{ "type": "Feature", "properties": { "full_id": "n10693460263", "osm_id": "10693460263", "osm_type": "node", "railway": "station", "wheelchair": null, "addr:housenumber": null, "name:zh": null, "name:ja": null, "ref": null, "addr:street": null, "wikipedia": "id:Stasiun Cimindi", "wikidata": "Q12516242", "train": "yes", "railway:ref": "CMD", "public_transport": "station", "operator:wikidata": "Q2745027", "operator:website": "https://www.kai.id", "operator": "PT Kereta Api Indonesia", "network:wikidata": "Q12501611", "network": "KAI Commuter", "name": "Cimindi", "ele": "736", "alt_name": "Stasiun Cimindi", "addr:postcode": "40184", "addr:city": "Bandung" }, "geometry": { "type": "Point", "coordinates": [ 783037.714682585210539, 9236967.0908557549119 ] } },
{ "type": "Feature", "properties": { "full_id": "n10693460292", "osm_id": "10693460292", "osm_type": "node", "railway": "station", "wheelchair": null, "addr:housenumber": null, "name:zh": null, "name:ja": null, "ref": null, "addr:street": null, "wikipedia": "en:Ciroyom railway station", "wikidata": "Q3944662", "train": "yes", "railway:ref": "CIR", "public_transport": "station", "operator:wikidata": "Q2745027", "operator:website": "https://www.kai.id", "operator": "PT Kereta Api Indonesia", "network:wikidata": "Q12501611", "network": "KAI Commuter", "name": "Ciroyom", "ele": "709", "alt_name": null, "addr:postcode": null, "addr:city": "Bandung City" }, "geometry": { "type": "Point", "coordinates": [ 786238.70811207848601, 9234958.662991805002093 ] } },
{ "type": "Feature", "properties": { "full_id": "n10693460294", "osm_id": "10693460294", "osm_type": "node", "railway": "station", "wheelchair": "limited", "addr:housenumber": "43", "name:zh": null, "name:ja": "バンドン", "ref": null, "addr:street": "Jalan Kebon Kawung", "wikipedia": "id:Stasiun Bandung", "wikidata": "Q2571158", "train": "yes", "railway:ref": "BD", "public_transport": "station", "operator:wikidata": "Q2745027", "operator:website": "https://www.kai.id", "operator": "PT Kereta Api Indonesia", "network:wikidata": "Q2745027", "network": "KAI", "name": "Bandung", "ele": "709", "alt_name": "Stasiun Bandung;Stasiun Bandung Hall;Bandung Hall", "addr:postcode": "40181", "addr:city": "Bandung" }, "geometry": { "type": "Point", "coordinates": [ 787553.563697909936309, 9234899.383991690352559 ] } },
{ "type": "Feature", "properties": { "full_id": "n10693460296", "osm_id": "10693460296", "osm_type": "node", "railway": "station", "wheelchair": "no", "addr:housenumber": null, "name:zh": null, "name:ja": null, "ref": null, "addr:street": "Kembang Sapatu", "wikipedia": "id:Stasiun Cikudapateuh", "wikidata": "Q12516239", "train": "yes", "railway:ref": "CTH", "public_transport": "station", "operator:wikidata": "Q2745027", "operator:website": "https://www.kai.id", "operator": "PT Kereta Api Indonesia", "network:wikidata": "Q12501611", "network": "KAI Commuter", "name": "Cikudapateuh", "ele": "691", "alt_name": "Stasiun Cikudapateuh", "addr:postcode": null, "addr:city": "Bandung" }, "geometry": { "type": "Point", "coordinates": [ 790193.94600591249764, 9234411.179904472082853 ] } }
]
}
